STARLINK-4154           
1 53133U 22083B   24226.18653002 -.00003262  00000+0 -18688-3 0  9999
2 53133  53.2155 228.7554 0001677  95.7919 264.3264 15.08854624115267
STARLINK-4150           
1 53134U 22083C   24226.43307448  .00001563  00000+0  11623-3 0  9990
2 53134  53.2151 227.5699 0001513  91.4967 268.6198 15.08848230115300
STARLINK-4023           
1 53135U 22083D   24226.17547645 -.00000449  00000+0 -10120-4 0  9993
2 53135  53.2161 228.7263 0001750 101.5137 258.6052 15.08841572115262
STARLINK-4152           
1 53136U 22083E   24226.17178876  .00007148  00000+0  46645-3 0  9991
2 53136  53.2157 228.7409 0001716  91.2957 268.8232 15.08865484115268
STARLINK-4145           
1 53137U 22083F   24226.29691718  .00002758  00000+0  19127-3 0  9997
2 53137  53.2148 228.1778 0001421  92.9329 267.1825 15.08848418115286
STARLINK-4141           
1 53138U 22083G   24226.16308041 -.00001596  00000+0 -82189-4 0  9998
2 53138  53.2152 223.9648 0001370  82.1878 277.9270 15.08844555115320
STARLINK-4185           
1 53139U 22083H   24226.21964439  .00000074  00000+0  22746-4 0  9995
2 53139  53.2151 228.5223 0001797 104.3060 255.8132 15.08837678115277
STARLINK-4170           
1 53140U 22083J   24226.22331828  .00001262  00000+0  97366-4 0  9998
2 53140  53.2158 228.5089 0001434 103.0556 257.0597 15.08846850115271
STARLINK-4103           
1 53141U 22083K   24226.20491852 -.00003062  00000+0 -17439-3 0  9995
2 53141  53.2145 228.5942 0001553  90.3031 269.8139 15.08835645115277
STARLINK-4101           
1 53142U 22083L   24225.74955258  .00006842  00000+0  44731-3 0  9991
2 53142  53.2145 230.6072 0001423  89.3821 270.7335 15.08859883114589
STARLINK-4102           
1 53143U 22083M   24226.39991056  .00006991  00000+0  45616-3 0  9998
2 53143  53.2163 227.7176 0001345  92.4112 267.7034 15.08899090115300
STARLINK-4100           
1 53144U 22083N   24225.74860029  .00004571  00000+0  30496-3 0  9994
2 53144  53.2153 230.6502 0001426  91.7373 268.3782 15.08854205114571
STARLINK-4106           
1 53145U 22083P   24226.19388482 -.00000805  00000+0 -32492-4 0  9990
2 53145  53.2167 228.6452 0001583  98.2611 261.8560 15.08835635115275
STARLINK-4099           
1 53146U 22083Q   24226.20859874  .00003028  00000+0  20823-3 0  9993
2 53146  53.2156 228.5749 0001527 106.2314 253.8847 15.08841930115274
STARLINK-4094           
1 53147U 22083R   24226.32267934  .00005139  00000+0  34067-3 0  9997
2 53147  53.2153 228.0686 0001705  96.9118 263.2068 15.08850236115293
STARLINK-4021           
1 53149U 22083T   24226.41656901  .00001007  00000+0  81325-4 0  9995
2 53149  53.2167 217.8479 0001476  97.5880 262.5280 15.08849073115446
STARLINK-4038           
1 53150U 22083U   24225.70906183 -.00001398  00000+0 -69792-4 0  9997
2 53150  53.2170 220.8177 0001412  90.3008 269.8146 15.08823285114700
STARLINK-4040           
1 53151U 22083V   24225.69800027  .00001459  00000+0  10974-3 0  9999
2 53151  53.2152 220.8693 0001337  90.5696 269.5449 15.08842340114701
STARLINK-4045           
1 53152U 22083W   24226.23527272  .00002979  00000+0  20510-3 0  9994
2 53152  53.2156 218.4581 0001894 134.8462 225.2684 15.08856475115419
STARLINK-4098           
1 53153U 22083X   24225.69431541  .00000737  00000+0  64384-4 0  9995
2 53153  53.2155 220.8843 0001545  94.2555 265.8614 15.08850251114702
STARLINK-4077           
1 53154U 22083Y   24226.36408056  .00000297  00000+0  36741-4 0  9993
2 53154  53.2166 217.8816 0001390  89.2827 270.8324 15.08840753115436
STARLINK-4088           
1 53155U 22083Z   24226.21688957 -.00005775  00000+0 -34522-3 0  9990
2 53155  53.2146 218.5387 0002079  40.4224 319.6922 15.08814688115413
STARLINK-4087           
1 53156U 22083AA  24226.20582400  .00001360  00000+0  10349-3 0  9991
2 53156  53.2146 218.4598 0001374 100.4351 259.6796 15.08843703115414
STARLINK-4093           
1 53157U 22083AB  24226.20952463 -.00000109  00000+0  11274-4 0  9992
2 53157  53.2156 218.5685 0001522 102.8928 257.2234 15.08835253115417
STARLINK-4054           
1 53158U 22083AC  24226.22055678 -.00000194  00000+0  59473-5 0  9995
2 53158  53.2171 218.5311 0002001 113.4717 246.6486 15.08847153115411
STARLINK-4111           
1 53159U 22083AD  24226.20217145 -.00003178  00000+0 -18171-3 0  9997
2 53159  53.2150 218.6022 0001393 110.5656 249.5485 15.08826386115418
STARLINK-4096           
1 53160U 22083AE  24226.41195391 -.00013667  00000+0 -84358-3 0  9994
2 53160  53.2157 217.6653 0001573 100.4390 259.6779 15.08783005115440
STARLINK-4055           
1 53161U 22083AF  24226.38983163  .00006047  00000+0  39750-3 0  9991
2 53161  53.2160 217.7587 0001990  98.2059 261.9159 15.08857839115446
STARLINK-4114           
1 53162U 22083AG  24226.27303289 -.00000751  00000+0 -29091-4 0  9991
2 53162  53.2144 218.2961 0001521  93.6239 266.4928 15.08847981115429
STARLINK-4104           
1 53163U 22083AH  24226.19849421 -.00000770  00000+0 -30267-4 0  9994
2 53163  53.2157 218.7653 0001594  97.2231 262.8942 15.08844183115415
STARLINK-4116           
1 53164U 22083AJ  24226.19479985  .00002158  00000+0  15359-3 0  9993
2 53164  53.2151 218.6397 0001861  94.9031 265.2174 15.08846603115416
STARLINK-4090           
1 53165U 22083AK  24226.24631827 -.00002007  00000+0 -10801-3 0  9997
2 53165  53.2152 218.4075 0001403  88.1439 271.9713 15.08840697115429
STARLINK-4110           
1 53166U 22083AL  24225.72375045 -.00002171  00000+0 -11835-3 0  9997
2 53166  53.2153 220.7481 0001647 116.9480 243.1681 15.08837926114711
STARLINK-3683           
1 53167U 22083AM  24226.19801599 -.00000422  00000+0 -84328-5 0  9994
2 53167  53.2136 203.6147 0001365  84.6607 275.4540 15.08844405115624
STARLINK-4105           
1 53168U 22083AN  24226.18376033  .00005254  00000+0  34788-3 0  9993
2 53168  53.2172 218.6871 0001861  99.6381 260.4822 15.08847847115418
STARLINK-4117           
1 53169U 22083AP  24226.24223802 -.00004554  00000+0 -26847-3 0  9997
2 53169  53.2166 203.6856 0001273  97.5823 262.5313 15.08802875115627
STARLINK-4095           
1 53170U 22083AQ  24226.21181004  .00000983  00000+0  79851-4 0  9997
2 53170  53.2156 213.5189 0001559 107.4824 252.6339 15.08846274115489
STARLINK-4052           
1 53171U 22083AR  24226.18648420  .00003557  00000+0  24139-3 0  9992
2 53171  53.2148 188.4355 0001436 105.6247 254.4903 15.08855656115839
STARLINK-4299           
1 53172U 22083AS  24226.33693194  .00000391  00000+0  42638-4 0  9996
2 53172  53.2171 212.9156 0001397  96.1632 263.9520 15.08835953115508
STARLINK-4300           
1 53173U 22083AT  24226.15845663 -.00004500  00000+0 -26487-3 0  9998
2 53173  53.2154 193.7923 0001642  77.2572 282.8604 15.08835050115752
STARLINK-4205           
1 53174U 22083AU  24226.44505872  .00000864  00000+0  72334-4 0  9996
2 53174  53.2161 227.4515 0001568 101.7253 258.3915 15.08854220115314
STARLINK-4292           
1 53175U 22083AV  24225.71915931  .00001938  00000+0  13979-3 0  9999
2 53175  53.2160 230.7782 0001558  98.1562 261.9607 15.08847190114560
STARLINK-4294           
1 53176U 22083AW  24225.65704578  .00000827  00000+0  70050-4 0  9996
2 53176  53.2150 205.9646 0001314  89.5926 270.5216 15.08844187114904
STARLINK-4298           
1 53177U 22083AX  24226.21733463 -.00004573  00000+0 -26944-3 0  9991
2 53177  53.2160 193.5300 0001545 111.1927 248.9230 15.08831793115763
STARLINK-4280           
1 53178U 22083AY  24226.24263594  .00010454  00000+0  67400-3 0  9993
2 53178  53.2155 218.4238 0001287 104.6769 255.4365 15.08837203115404
STARLINK-4276           
1 53179U 22083AZ  24226.16903449 -.00006244  00000+0 -37512-3 0  9990
2 53179  53.2158 178.3539 0001281  83.4309 276.6829 15.08787574115971
STARLINK-4258           
1 53180U 22083BA  24226.19479580 -.00019450  00000+0 -12089-2 0  9993
2 53180  53.2149 178.5079 0001353  97.6591 262.4555 15.08791771115977
STARLINK-4273           
1 53181U 22083BB  24226.13476652  .00123647  00000+0  68823-2 0  9994
2 53181  53.2144 178.1530 0002428 105.1844 254.9418 15.12684166115979
STARLINK-4278           
1 53182U 22083BC  24226.27991505  .00016036  00000+0  10230-2 0  9991
2 53182  53.2151 193.2483 0001033  80.2952 279.8157 15.08852829115779
STARLINK-4268           
1 53183U 22083BD  24226.28815452  .00004287  00000+0  28704-3 0  9990
2 53183  53.2140 183.1314 0001351 112.3229 247.7906 15.08867647115912
STARLINK-4257           
1 53184U 22083BE  24226.16532913 -.00008147  00000+0 -49486-3 0  9997
2 53184  53.2161 178.3599 0001503  96.1734 263.9429 15.08805236115978
STARLINK-4391           
1 53189U 22084A   24226.44314787 -.00011299  00000+0 -87651-3 0  9999
2 53189  97.6548 286.4554 0002750 108.3839 251.7685 15.01258431113691
STARLINK-4332           
1 53190U 22084B   24226.40401063  .00001255  00000+0  10230-3 0  9999
2 53190  97.6589 286.4083 0003030 230.7415 129.3540 15.01266944113684
STARLINK-4369           
1 53191U 22084C   24226.16518307  .00006710  00000+0  52630-3 0  9994
2 53191  97.6538 286.1873 0001995  86.3108 273.8344 15.01276390113644
STARLINK-4375           
1 53192U 22084D   24226.42994652 -.00004604  00000+0 -35415-3 0  9999
2 53192  97.6528 286.4472 0002759 104.1365 256.0165 15.01253761113680
STARLINK-4351           
1 53193U 22084E   24226.43549329  .00001070  00000+0  87887-4 0  9991
2 53193  97.6535 286.4565 0001803  78.1968 281.9458 15.01271504113698
STARLINK-4382           
1 53194U 22084F   24226.43364674 -.00010852  00000+0 -84155-3 0  9994
2 53194  97.6517 286.4534 0003290 109.1185 251.0395 15.01256955113683
STARLINK-4404           
1 53195U 22084G   24226.15408191 -.00003261  00000+0 -24953-3 0  9993
2 53195  97.6545 286.1873 0000316 226.4470 133.6728 15.01247939113647
STARLINK-4407           
1 53196U 22084H   24226.42254347 -.00007304  00000+0 -56494-3 0  9993
2 53196  97.6565 286.4550 0001533  89.7537 270.3863 15.01238348113688
